{"fetched_at":"2026-07-07T18:29:15.747Z","source":"https://celestrak.org/NORAD/elements/gp.php?NAME=ASTROCAST&FORMAT=JSON","constellation":"astrocast","records":[{"OBJECT_NAME":"ASTROCAST 0.1","OBJECT_ID":"2018-099AS","EPOCH":"2026-07-06T19:40:41.119968","CLASSIFICATION_TYPE":"U","MEAN_MOTION":15.50999199,"ECCENTRICITY":0.0005631,"INCLINATION":97.4362,"RA_OF_ASC_NODE":266.947,"ARG_OF_PERICENTER":150.9433,"MEAN_ANOMALY":209.2133,"EPHEMERIS_TYPE":0,"NORAD_CAT_ID":43798,"ELEMENT_SET_NO":999,"REV_AT_EPOCH":41747,"BSTAR":0.0005411,"MEAN_MOTION_DOT":0.00031413,"MEAN_MOTION_DDOT":0},{"OBJECT_NAME":"ASTROCAST-0402","OBJECT_ID":"2023-001DE","EPOCH":"2026-07-07T04:52:58.092096","CLASSIFICATION_TYPE":"U","MEAN_MOTION":15.28903463,"ECCENTRICITY":0.0005867,"INCLINATION":97.5576,"RA_OF_ASC_NODE":281.7057,"ARG_OF_PERICENTER":156.8284,"MEAN_ANOMALY":203.3221,"EPHEMERIS_TYPE":0,"NORAD_CAT_ID":55109,"ELEMENT_SET_NO":999,"REV_AT_EPOCH":14759,"BSTAR":0.00025301,"MEAN_MOTION_DOT":0.0000703,"MEAN_MOTION_DDOT":0},{"OBJECT_NAME":"ASTROCAST-0401","OBJECT_ID":"2023-001DF","EPOCH":"2026-07-07T05:11:38.757120","CLASSIFICATION_TYPE":"U","MEAN_MOTION":15.28384033,"ECCENTRICITY":0.0009426,"INCLINATION":97.5554,"RA_OF_ASC_NODE":281.5321,"ARG_OF_PERICENTER":131.8733,"MEAN_ANOMALY":228.3312,"EPHEMERIS_TYPE":0,"NORAD_CAT_ID":55110,"ELEMENT_SET_NO":999,"REV_AT_EPOCH":19426,"BSTAR":0.0003551,"MEAN_MOTION_DOT":0.00009752,"MEAN_MOTION_DDOT":0},{"OBJECT_NAME":"ASTROCAST-0403","OBJECT_ID":"2023-001DG","EPOCH":"2026-07-07T06:03:53.826912","CLASSIFICATION_TYPE":"U","MEAN_MOTION":15.32109189,"ECCENTRICITY":0.0004102,"INCLINATION":97.5616,"RA_OF_ASC_NODE":282.8372,"ARG_OF_PERICENTER":244.512,"MEAN_ANOMALY":115.5697,"EPHEMERIS_TYPE":0,"NORAD_CAT_ID":55111,"ELEMENT_SET_NO":999,"REV_AT_EPOCH":14763,"BSTAR":0.00042534,"MEAN_MOTION_DOT":0.00013117,"MEAN_MOTION_DDOT":0},{"OBJECT_NAME":"ASTROCAST-0404","OBJECT_ID":"2023-001DH","EPOCH":"2026-07-07T11:57:08.756064","CLASSIFICATION_TYPE":"U","MEAN_MOTION":15.28745041,"ECCENTRICITY":0.0004804,"INCLINATION":97.5662,"RA_OF_ASC_NODE":282.9311,"ARG_OF_PERICENTER":278.5773,"MEAN_ANOMALY":81.4922,"EPHEMERIS_TYPE":0,"NORAD_CAT_ID":55112,"ELEMENT_SET_NO":999,"REV_AT_EPOCH":14763,"BSTAR":0.00019629,"MEAN_MOTION_DOT":0.00005408,"MEAN_MOTION_DDOT":0}]}
