ASTROCAST 0.1           
1 43798U 18099AS  26187.81992038  .00031413  00000+0  54110-3 0  9997
2 43798  97.4362 266.9470 0005630 150.9433 209.2133 15.50999199417477
ASTROCAST-0402          
1 55109U 23001DE  26188.20345014  .00007030  00000+0  25301-3 0  9993
2 55109  97.5576 281.7057 0005866 156.8284 203.3221 15.28903463147590
ASTROCAST-0401          
1 55110U 23001DF  26188.21642081  .00009752  00000+0  35510-3 0  9996
2 55110  97.5554 281.5321 0009426 131.8733 228.3312 15.28384033194268
ASTROCAST-0403          
1 55111U 23001DG  26188.25270634  .00013117  00000+0  42534-3 0  9996
2 55111  97.5616 282.8372 0004102 244.5120 115.5697 15.32109189147630
ASTROCAST-0404          
1 55112U 23001DH  26188.49801801  .00005408  00000+0  19629-3 0  9992
2 55112  97.5662 282.9311 0004804 278.5773  81.4922 15.28745041147636
